[{"OBJECT_NAME":"STARLINK-4730","OBJECT_ID":"2022-111X","EPOCH":"2026-03-09T20:35:10.878720","MEAN_MOTION":15.08837359,"ECCENTRICITY":0.00013423,"INCLINATION":53.2157,"RA_OF_ASC_NODE":273.2168,"ARG_OF_PERICENTER":95.9719,"MEAN_ANOMALY":264.1426,"EPHEMERIS_TYPE":0,"CLASSIFICATION_TYPE":"U","NORAD_CAT_ID":53794,"ELEMENT_SET_NO":999,"REV_AT_EPOCH":19371,"BSTAR":-4.45596e-6,"MEAN_MOTION_DOT":-3.59e-6,"MEAN_MOTION_DDOT":0},{"OBJECT_NAME":"STARLING 3","OBJECT_ID":"2023-100D","EPOCH":"2026-03-09T22:41:57.048288","MEAN_MOTION":15.11145977,"ECCENTRICITY":0.00066311,"INCLINATION":99.5096,"RA_OF_ASC_NODE":65.6477,"ARG_OF_PERICENTER":76.1122,"MEAN_ANOMALY":284.0839,"EPHEMERIS_TYPE":0,"CLASSIFICATION_TYPE":"U","NORAD_CAT_ID":57389,"ELEMENT_SET_NO":999,"REV_AT_EPOCH":14507,"BSTAR":0.00051487914,"MEAN_MOTION_DOT":8.551e-5,"MEAN_MOTION_DDOT":0}]
